1     5U 58002B   20196.14828644  .00000104  00000-0  14963-3 0  9996
2     5  34.2434 146.0552 1846679 112.4439 268.1611 10.84858692208258
1    11U 59001A   20195.69755317 -.00000123  00000-0 -61531-4 0  9995
2    11  32.8696 316.8600 1468441  39.6199 330.2959 11.85690718619842
1    12U 59001B   20196.44882485  .00000131  00000-0  57764-4 0  9997
2    12  32.9042 256.5058 1664475 217.8783 129.2377 11.44294029525644
1    16U 58002A   20195.80453432 -.00000128 +00000-0 -17367-3 0  9998
2    16 034.2670 078.4805 2024501 348.8396 007.3029 10.48682997461600
1    20U 59007A   20196.42693453  .00000130  00000-0  61314-4 0  9990
2    20  33.3431  85.9782 1664603  49.8093 323.6773 11.55694172233751
1    22U 59009A   20196.43596359 -.00000185  00000-0  96492-5 0  9999
2    22  50.2852 335.4621 0139477   1.8564 358.2873 14.95160251229369
1    29U 60002B   20195.69378912 -.00000148 +00000-0 +90292-5 0  9992
2    29 048.3781 184.7820 0024303 343.1850 016.8254 14.74362686222414
1    45U 60007A   20196.30333364 -.00000064  00000-0  11385-4 0  9998
2    45  66.6955 310.1598 0262312 295.3633  62.0515 14.33681162126555
1    46U 60007B   20196.37796595 -.00000059  00000-0  11407-4 0  9994
2    46  66.6915 333.7673 0203055 111.9650 250.3173 14.49304325143009
1    47U 60007C   20196.40149411 -.00000088  00000-0  57952-5 0  9996
2    47  66.6662  82.9554 0235245 283.1219  74.3730 14.42093032139000
1    50U 60009B   20195.84402791 -.00000100 +00000-0 -12322-3 0  9998
2    50 047.2326 039.3641 0113896 044.3510 316.6336 12.20112734673447
1    51U 60009C   20196.21427946 -.00000076  00000-0  74826-4 0  9999
2    51  47.2127 264.6312 0108563 242.2658 116.7084 12.18276230667342
1    53U 60009E   20195.86004577 -.00000053 +00000-0 +31693-3 0  9991
2    53 047.2734 177.5529 0097148 160.3084 200.1493 12.17241716671784
1    58U 60013A   20195.67400947 +.00000098 +00000-0 +16616-4 0  9998
2    58 028.3297 321.6103 0165061 286.3568 071.8887 13.46322741942152
1    59U 60013B   20195.81087648  .00000101  00000-0  15647-4 0  9992
2    59  28.2492  82.8096 0189298 147.4203 213.8179 13.52977531950686
1    82U 61004B   20195.88020007 -.00000042 +00000-0 -70460-5 0  9993
2    82 038.8607 100.5210 1174561 211.1928 141.3580 12.26062520811055
1    85U 61004C   20195.45370156 +.00001740 +00000-0 +38820-3 0  9998
2    85 038.7697 248.4327 0388412 314.2243 042.7213 14.20800751934799
1   107U 61013A   20195.87642224 +.00000179 +00000-0 +40089-5 0  9994
2   107 028.7909 032.2250 0546808 340.6347 017.4175 14.08971546969955
1   115U 60002D   20196.12786439 -.00000088  00000-0  16762-4 0  9996
2   115  48.1659 145.9645 0034823   4.9618 355.1633 14.83589836216936
1   116U 61015A   20196.34895779 -.00000033  00000-0  33814-4 0  9991
2   116  66.8096 142.4703 0077258 344.8112  15.0647 13.91772394996045
1   117U 61015B   20196.09038253 -.00000064  00000-0  97119-5 0  9993
2   117  66.8110 239.1491 0076796   6.0124 354.1858 13.89853523993732
1   118U 61015C   20196.05064410 -.00000039  00000-0  26060-4 0  9992
2   118  66.7648  53.0702 0083801 350.1925   9.7519 14.01681504 13275
1   119U 61015D   20195.51477300  .00000009  00000-0  39036-4 0  9992
2   119  66.7273 236.5613 0101677  21.1858 339.3401 14.23296506 50395
1   120U 61015E   20195.57856441 -.00000044 +00000-0 +16144-4 0  9992
2   120 066.7075 305.0111 0111370 129.4146 231.6874 14.25399951039491
1   121U 61015F   20195.77844327 -.00000053 +00000-0 +16723-4 0  9998
2   121 066.7483 018.9240 0086534 075.2677 285.7976 13.99691992023416
1   122U 61015G   20195.66962610 +.00000199 +00000-0 +51304-4 0  9997
2   122 066.7497 173.7945 0064430 120.9107 239.8368 14.69222691095059
1   123U 61015H   20195.61463240 -.00000003 +00000-0 +28028-4 0  9990
2   123 066.6856 055.1740 0109462 049.4984 311.5592 14.37072993068158
1   124U 61015J   20196.05237570  .00000074  00000-0  59890-4 0  9993
2   124  66.5417 203.8653 0079689 198.7619 161.0537 14.30495001 49435
1   125U 61015K   20195.77570699 -.00000058 +00000-0 +12758-4 0  9999
2   125 066.8759 295.8451 0079373 212.0828 147.5416 14.05515342012918
1   126U 61015L   20195.41497235 +.00000075 +00000-0 +54011-4 0  9991
2   126 066.7132 079.7594 0061725 046.4219 314.1982 14.36254148053075
1   127U 61015M   20195.51090971 +.00000166 +00000-0 +80050-4 0  9992
2   127 066.8314 290.9142 0079741 228.7357 130.6861 14.38773751054706
1   128U 61015N   20196.43127201 -.00000032  00000-0  30897-4 0  9999
2   128  66.6735 186.1225 0094463 357.2976   2.7583 14.01193422 12281
1   130U 61015Q   20196.30134498 -.00000054  00000-0  16272-4 0  9999
2   130  66.7691 214.4402 0085255   3.3042 356.8585 13.98714215  9319
1   131U 61015R   20195.73279144 -.00000038 +00000-0 +26776-4 0  9996
2   131 066.7360 094.4274 0076719 142.2546 218.3955 14.00690162000247
1   132U 61015S   20195.70889264 -.00000072 +00000-0 +50966-5 0  9991
2   132 066.6593 279.7721 0079126 214.3455 145.2495 13.94321750001878
1   133U 61015T   20196.21553137 -.00000021  00000-0  28127-4 0  9993
2   133  67.1171 293.7522 0047736  59.4091 301.1701 14.18208207 26731
1   134U 61015U   20195.62400968 -.00000039 +00000-0 +26661-4 0  9991
2   134 066.8816 331.1811 0087477 309.4200 049.9161 13.96833212003319
1   136U 61015W   20195.63595037 +.00000278 +00000-0 +12631-3 0  9991
2   136 067.5307 050.6606 0058847 207.2414 152.5603 14.33587545045854
1   138U 61015Y   20195.94165083  .00000004  00000-0  52538-4 0  9999
2   138  67.1556  15.0168 0030436   1.2647 358.8512 14.01717245999709
1   141U 61015AB  20196.05767302 -.00000094  00000-0 -14040-4 0  9995
2   141  66.5902 305.5622 0052853  12.1104 348.1227 13.86874385971907
1   144U 61015AE  20195.65073351 +.00000002 +00000-0 +64760-4 0  9998
2   144 066.5012 336.3042 0049342 296.2495 063.3514 13.90091411983686
1   145U 61015AF  20196.39398237 -.00000114  00000-0 -23970-4 0  9998
2   145  66.9262 338.5378 0056761  90.0800 270.6790 14.01345829 13857
1   147U 61015AH  20195.70614143 -.00000060 +00000-0 +11210-4 0  9994
2   147 066.6172 197.9145 0051521 153.2638 207.1128 14.19094735026934
1   148U 61015AJ  20195.64832112 +.00000008 +00000-0 +52973-4 0  9998
2   148 065.7762 017.2926 0153808 338.2484 021.2106 14.05721321454339
1   150U 61015AL  20195.67441491 +.00000040 +00000-0 +11038-3 0  9992
2   150 066.2469 189.2291 0053298 068.2365 292.4364 13.81241698809347
1   152U 61015AN  20195.63785221 -.00000228 +00000-0 -73863-4 0  9997
2   152 066.5903 064.6715 0160678 227.9745 130.7563 14.09236453020893
1   154U 61015AQ  20196.39397371  .00000040  00000-0  73557-4 0  9998
2   154  66.6567 196.0718 0077311  56.7227 304.1233 14.04482005 13040
1   155U 61015AR  20195.85358999 +.00000253 +00000-0 +10786-3 0  9992
2   155 066.8796 252.6442 0042069 147.8379 212.5305 14.39297712048689
1   158U 61015AU  20195.53092673 +.00000189 +00000-0 +63204-3 0  9995
2   158 067.0734 117.9637 0604899 117.9409 248.4189 12.65250743731411
1   159U 61015AV  20195.58185871 +.00000057 +00000-0 +28752-3 0  9997
2   159 065.5264 336.3767 0380532 263.3886 092.3697 13.02058240798945
1   162U 61017A   20196.19656721 -.00000142  00000-0  62149-5 0  9994
2   162  47.8998 118.4440 0044928 202.3391 157.5545 14.44058285104193
1   163U 61018A   20196.16835438 -.00000001  00000-0 -64061-3 0  9995
2   163  91.2011 110.8377 0102751  11.3967 348.9202  8.91835558921345
1   167U 61017D   20195.84899741 -.00000196 +00000-0 -19117-4 0  9997
2   167 047.8437 195.8286 0092802 254.3740 104.6886 14.22756019056386
1   172U 61015AY  20195.65550485 +.00000035 +00000-0 +13642-3 0  9995
2   172 067.0688 075.0181 0133958 164.3546 196.1721 13.57481487911575
1   177U 61015BB  20195.84032262 +.00000065 +00000-0 +73568-4 0  9996
2   177 066.6701 327.4845 0115025 167.3849 193.0164 14.13517538035165
1   178U 61015BC  20195.55585835 -.00000062 +00000-0 +10962-4 0  9991
2   178 066.8644 248.0187 0072865 100.1328 260.7982 13.92366304995841
1   188U 61018C   20195.21272379 -.00000030  00000-0 -10820-1 0  9990
2   188  91.1952 113.4905 0101641 246.7970 112.2171  8.93799615925072
1   192U 61028A   20195.74628728 +.00000004 +00000-0 +33658-2 0  9991
2   192 095.8578 128.4315 0138180 286.3554 072.2145 08.67761726860414
1   194U 61028C   20195.78945538 +.00000029 +00000-0 +13492-1 0  9998
2   194 095.8363 150.2811 0376945 156.9271 204.9006 08.70052516865018
1   195U 61028D   20195.22001657 -.00000014 +00000-0 -49820-2 0  9994
2   195 095.8725 111.0396 0146674 009.3692 350.9848 08.65617100855718
1   196U 61018D   20196.22760389  .00000001  00000-0 -23560-4 0  9999
2   196  91.2076 109.0754 0098555 145.0257 215.7137  8.89671497916602
1   202U 61031A   20195.86343909  .00000018  00000-0 -45569-5 0  9998
2   202  32.4397  40.2933 0101378 337.9440  21.6839 13.63538049925473
1   204U 61031C   20195.83968872  .00000033  00000-0  14467-4 0  9997
2   204  32.4418 119.7145 0098431  40.4153 320.3732 13.64875569927552
1   205U 61031B   20196.26237511  .00000010  00000-0 -15435-4 0  9997
2   205  32.4388 172.3796 0102066 133.3027 227.6157 13.62413386924277
1   210U 61015BE  20196.23022735  .00000069  00000-0  12628-3 0  9995
2   210  66.4583 290.0975 0054613 236.1096 123.4776 13.86035847965651
1   223U 61015BK  20195.63759706 -.00000057 +00000-0 +15196-4 0  9999
2   223 066.8892 169.3516 0061820 066.0551 294.6985 13.88642782990290
1   224U 61015BL  20196.31703068  .00000221  00000-0  17410-3 0  9998
2   224  66.7350 217.7267 0059598 124.7986 247.0134 14.08024272  7965
1   225U 61015BM  20195.62882331  .00000102  00000-0  66752-4 0  9995
2   225  66.7995 163.5621 0105196  35.7221 325.0856 14.31486330 47833
1   226U 62002A   20196.03469915 -.00000161  00000-0  34803-5 0  9997
2   226  48.2973  72.4254 0078336 345.8206  14.0495 14.45678894 76095
1   227U 62002B   20195.75689796 -.00000078 +00000-0 +28381-4 0  9997
2   227 048.1486 331.7062 0131868 157.9713 202.6919 14.38266788032553
1   228U 62002C   20195.77860185 -.00000064 +00000-0 +15281-4 0  9993
2   228 048.4305 012.0731 0014618 056.1462 304.0850 15.01356475139309
